{"type": "FeatureCollection", "features": [ {"type": "Feature", "properties": {"norad_id": 42969, "name": "SENTINEL-5P", "group": "resource", "lat": -5.027091652712851, "lon": 105.65563278306608, "alt_km": 830.6177213052397, "timestamp": "2025-12-13T20:38:50.652392+00:00", "meta": {"OBJECT_NAME": "SENTINEL-5P", "OBJECT_ID": "2017-064A", "EPOCH": "2025-12-13T06:14:43.993824", "MEAN_MOTION": 14.19517847, "ECCENTRICITY": 9.684e-05, "INCLINATION": 98.7785, "RA_OF_ASC_NODE": 285.8398, "ARG_OF_PERICENTER": 89.1982, "MEAN_ANOMALY": 270.9305, "EPHEMERIS_TYPE": 0, "CLASSIFICATION_TYPE": "U", "NORAD_CAT_ID": 42969, "ELEMENT_SET_NO": 999, "REV_AT_EPOCH": 42318, "BSTAR": 9.3581145e-05, "MEAN_MOTION_DOT": 1.53e-06, "MEAN_MOTION_DDOT": 0}, "tle": {"line1": "1 42969U 17064A   25347.26023141  .00000153  00000+0  93581-4 0  9996", "line2": "2 42969  98.7785 285.8398 0000968  89.1982 270.9305 14.19517847423180"}}, "geometry": {"type": "Point", "coordinates": [105.65563278306608, -5.027091652712851]}}, {"type": "Feature", "properties": {"norad_id": 42987, "name": "SKYSAT-C11", "group": "resource", "lat": 81.6112265531792, "lon": 7.385582641610621, "alt_km": 415.8528278402191, "timestamp": "2025-12-13T20:38:50.652404+00:00", "meta": {"OBJECT_NAME": "SKYSAT-C11", "OBJECT_ID": "2017-068A", "EPOCH": "2025-12-13T07:49:40.507392", "MEAN_MOTION": 15.4748574, "ECCENTRICITY": 0.00010103, "INCLINATION": 97.4137, "RA_OF_ASC_NODE": 124.8318, "ARG_OF_PERICENTER": 102.798, "MEAN_ANOMALY": 257.3383, "EPHEMERIS_TYPE": 0, "CLASSIFICATION_TYPE": "U", "NORAD_CAT_ID": 42987, "ELEMENT_SET_NO": 999, "REV_AT_EPOCH": 45440, "BSTAR": 0.00067060064, "MEAN_MOTION_DOT": 0.00034437, "MEAN_MOTION_DDOT": 0}, "tle": {"line1": "1 42987U 17068A   25347.32616328  .00034437  00000+0  67060-3 0  9996", "line2": "2 42987  97.4137 124.8318 0001010 102.7980 257.3383 15.47485740454402"}}, "geometry": {"type": "Point", "coordinates": [7.385582641610621, 81.6112265531792]}}, {"type": "Feature", "properties": {"norad_id": 42988, "name": "SKYSAT-C10", "group": "resource", "lat": 66.40588098492226, "lon": -43.9125496219726, "alt_km": 459.5088157080572, "timestamp": "2025-12-13T20:38:50.652414+00:00", "meta": {"OBJECT_NAME": "SKYSAT-C10", "OBJECT_ID": "2017-068B", "EPOCH": "2025-12-13T07:37:07.767264", "MEAN_MOTION": 15.32083487, "ECCENTRICITY": 0.00053586, "INCLINATION": 97.4254, "RA_OF_ASC_NODE": 118.1695, "ARG_OF_PERICENTER": 101.9243, "MEAN_ANOMALY": 258.26, "EPHEMERIS_TYPE": 0, "CLASSIFICATION_TYPE": "U", "NORAD_CAT_ID": 42988, "ELEMENT_SET_NO": 999, "REV_AT_EPOCH": 45388, "BSTAR": 0.00057108607, "MEAN_MOTION_DOT": 0.0001764, "MEAN_MOTION_DDOT": 0}, "tle": {"line1": "1 42988U 17068B   25347.31745101  .00017640  00000+0  57109-3 0  9998", "line2": "2 42988  97.4254 118.1695 0005358 101.9243 258.2600 15.32083487453888"}}, "geometry": {"type": "Point", "coordinates": [-43.9125496219726, 66.40588098492226]}}, {"type": "Feature", "properties": {"norad_id": 42989, "name": "SKYSAT-C9", "group": "resource", "lat": -23.993989707638217, "lon": 121.4471029577293, "alt_km": 465.47882600014054, "timestamp": "2025-12-13T20:38:50.652425+00:00", "meta": {"OBJECT_NAME": "SKYSAT-C9", "OBJECT_ID": "2017-068C", "EPOCH": "2025-12-13T06:40:54.368256", "MEAN_MOTION": 15.36073836, "ECCENTRICITY": 0.00106391, "INCLINATION": 97.4182, "RA_OF_ASC_NODE": 117.5361, "ARG_OF_PERICENTER": 85.6404, "MEAN_ANOMALY": 274.6055, "EPHEMERIS_TYPE": 0, "CLASSIFICATION_TYPE": "U", "NORAD_CAT_ID": 42989, "ELEMENT_SET_NO": 999, "REV_AT_EPOCH": 45416, "BSTAR": 0.0006177282, "MEAN_MOTION_DOT": 0.00021697, "MEAN_MOTION_DDOT": 0}, "tle": {"line1": "1 42989U 17068C   25347.27840704  .00021697  00000+0  61773-3 0  9998", "line2": "2 42989  97.4182 117.5361 0010639  85.6404 274.6055 15.36073836454166"}}, "geometry": {"type": "Point", "coordinates": [121.4471029577293, -23.993989707638217]}}, {"type": "Feature", "properties": {"norad_id": 42990, "name": "SKYSAT-C8", "group": "resource", "lat": -64.78507102331491, "lon": 133.94907212407293, "alt_km": 473.53026649375533, "timestamp": "2025-12-13T20:38:50.652435+00:00", "meta": {"OBJECT_NAME": "SKYSAT-C8", "OBJECT_ID": "2017-068D", "EPOCH": "2025-12-13T06:50:04.397568", "MEAN_MOTION": 15.32941317, "ECCENTRICITY": 0.0001576, "INCLINATION": 97.4276, "RA_OF_ASC_NODE": 117.2868, "ARG_OF_PERICENTER": 346.1093, "MEAN_ANOMALY": 14.0105, "EPHEMERIS_TYPE": 0, "CLASSIFICATION_TYPE": "U", "NORAD_CAT_ID": 42990, "ELEMENT_SET_NO": 999, "REV_AT_EPOCH": 45379, "BSTAR": 0.00056624391, "MEAN_MOTION_DOT": 0.0001796, "MEAN_MOTION_DDOT": 0}, "tle": {"line1": "1 42990U 17068D   25347.28477312  .00017960  00000+0  56624-3 0  9999", "line2": "2 42990  97.4276 117.2868 0001576 346.1093  14.0105 15.32941317453794"}}, "geometry": {"type": "Point", "coordinates": [133.94907212407293, -64.78507102331491]}}, {"type": "Feature", "properties": {"norad_id": 42991, "name": "SKYSAT-C7", "group": "resource", "lat": 32.24714405053117, "lon": -56.373235776797884, "alt_km": 467.33272057886916, "timestamp": "2025-12-13T20:38:50.652446+00:00", "meta": {"OBJECT_NAME": "SKYSAT-C7", "OBJECT_ID": "2017-068E", "EPOCH": "2025-12-13T07:28:09.681888", "MEAN_MOTION": 15.32346576, "ECCENTRICITY": 0.00076186, "INCLINATION": 97.4284, "RA_OF_ASC_NODE": 118.3543, "ARG_OF_PERICENTER": 55.1316, "MEAN_ANOMALY": 305.0641, "EPHEMERIS_TYPE": 0, "CLASSIFICATION_TYPE": "U", "NORAD_CAT_ID": 42991, "ELEMENT_SET_NO": 999, "REV_AT_EPOCH": 45386, "BSTAR": 0.00057267369, "MEAN_MOTION_DOT": 0.00017844, "MEAN_MOTION_DDOT": 0}, "tle": {"line1": "1 42991U 17068E   25347.31122317  .00017844  00000+0  57267-3 0  9991", "line2": "2 42991  97.4284 118.3543 0007618  55.1316 305.0641 15.32346576453866"}}, "geometry": {"type": "Point", "coordinates": [-56.373235776797884, 32.24714405053117]}}, {"type": "Feature", "properties": {"norad_id": 42992, "name": "SKYSAT-C6", "group": "resource", "lat": -78.21612117188937, "lon": -99.39079538629362, "alt_km": 482.1420854137541, "timestamp": "2025-12-13T20:38:50.652456+00:00", "meta": {"OBJECT_NAME": "SKYSAT-C6", "OBJECT_ID": "2017-068F", "EPOCH": "2025-12-13T06:58:02.949024", "MEAN_MOTION": 15.3150911, "ECCENTRICITY": 0.00051621, "INCLINATION": 97.4317, "RA_OF_ASC_NODE": 118.7714, "ARG_OF_PERICENTER": 80.8815, "MEAN_ANOMALY": 279.301, "EPHEMERIS_TYPE": 0, "CLASSIFICATION_TYPE": "U", "NORAD_CAT_ID": 42992, "ELEMENT_SET_NO": 999, "REV_AT_EPOCH": 45384, "BSTAR": 0.00056869547, "MEAN_MOTION_DOT": 0.00017253, "MEAN_MOTION_DDOT": 0}, "tle": {"line1": "1 42992U 17068F   25347.29031191  .00017253  00000+0  56870-3 0  9991", "line2": "2 42992  97.4317 118.7714 0005162  80.8815 279.3010 15.31509110453844"}}, "geometry": {"type": "Point", "coordinates": [-99.39079538629362, -78.21612117188937]}}, {"type": "Feature", "properties": {"norad_id": 43111, "name": "CARTOSAT-2F", "group": "resource", "lat": -41.662542577967834, "lon": 52.14945733335247, "alt_km": 515.4027648395322, "timestamp": "2025-12-13T20:38:50.652466+00:00", "meta": {"OBJECT_NAME": "CARTOSAT-2F", "OBJECT_ID": "2018-004A", "EPOCH": "2025-12-13T08:11:12.590880", "MEAN_MOTION": 15.1928559, "ECCENTRICITY": 0.00011212, "INCLINATION": 97.4319, "RA_OF_ASC_NODE": 44.9687, "ARG_OF_PERICENTER": 140.2572, "MEAN_ANOMALY": 219.8745, "EPHEMERIS_TYPE": 0, "CLASSIFICATION_TYPE": "U", "NORAD_CAT_ID": 43111, "ELEMENT_SET_NO": 999, "REV_AT_EPOCH": 43911, "BSTAR": 0.00032193301, "MEAN_MOTION_DOT": 6.726e-05, "MEAN_MOTION_DDOT": 0}, "tle": {"line1": "1 43111U 18004A   25347.34111795  .00006726  00000+0  32193-3 0  9996", "line2": "2 43111  97.4319  44.9687 0001121 140.2572 219.8745 15.19285590439118"}}, "geometry": {"type": "Point", "coordinates": [52.14945733335247, -41.662542577967834]}}, {"type": "Feature", "properties": {"norad_id": 43259, "name": "GAOFEN-1 02", "group": "resource", "lat": -81.71233097378492, "lon": 122.8935632919047, "alt_km": 647.3322804796853, "timestamp": "2025-12-13T20:38:50.652481+00:00", "meta": {"OBJECT_NAME": "GAOFEN-1 02", "OBJECT_ID": "2018-031A", "EPOCH": "2025-12-13T06:24:27.117792", "MEAN_MOTION": 14.76419617, "ECCENTRICITY": 0.00017935, "INCLINATION": 98.0805, "RA_OF_ASC_NODE": 45.0564, "ARG_OF_PERICENTER": 215.2214, "MEAN_ANOMALY": 144.8877, "EPHEMERIS_TYPE": 0, "CLASSIFICATION_TYPE": "U", "NORAD_CAT_ID": 43259, "ELEMENT_SET_NO": 999, "REV_AT_EPOCH": 41526, "BSTAR": 0.00033592537, "MEAN_MOTION_DOT": 2.284e-05, "MEAN_MOTION_DDOT": 0}, "tle": {"line1": "1 43259U 18031A   25347.26698053  .00002284  00000+0  33593-3 0  9997", "line2": "2 43259  98.0805  45.0564 0001793 215.2214 144.8877 14.76419617415269"}}, "geometry": {"type": "Point", "coordinates": [122.8935632919047, -81.71233097378492]}}, {"type": "Feature", "properties": {"norad_id": 43260, "name": "GAOFEN-1 03", "group": "resource", "lat": 26.70351881788547, "lon": 41.42903645216167, "alt_km": 639.1149462199182, "timestamp": "2025-12-13T20:38:50.652492+00:00", "meta": {"OBJECT_NAME": "GAOFEN-1 03", "OBJECT_ID": "2018-031B", "EPOCH": "2025-12-13T07:30:48.396960", "MEAN_MOTION": 14.76439285, "ECCENTRICITY": 0.00019453, "INCLINATION": 98.0798, "RA_OF_ASC_NODE": 44.9794, "ARG_OF_PERICENTER": 319.5421, "MEAN_ANOMALY": 40.5643, "EPHEMERIS_TYPE": 0, "CLASSIFICATION_TYPE": "U", "NORAD_CAT_ID": 43260, "ELEMENT_SET_NO": 999, "REV_AT_EPOCH": 41526, "BSTAR": 0.00023178748, "MEAN_MOTION_DOT": 1.56e-05, "MEAN_MOTION_DDOT": 0}, "tle": {"line1": "1 43260U 18031B   25347.31306015  .00001560  00000+0  23179-3 0  9994", "line2": "2 43260  98.0798  44.9794 0001945 319.5421  40.5643 14.76439285415268"}}, "geometry": {"type": "Point", "coordinates": [41.42903645216167, 26.70351881788547]}}]}